[{"OBJECT_NAME":"OBJECT F","OBJECT_ID":"2023-072F","EPOCH":"2026-03-09T23:31:37.259904","MEAN_MOTION":15.29470958,"ECCENTRICITY":0.00062878,"INCLINATION":97.5173,"RA_OF_ASC_NODE":265.798,"ARG_OF_PERICENTER":19.0017,"MEAN_ANOMALY":341.1456,"EPHEMERIS_TYPE":0,"CLASSIFICATION_TYPE":"U","NORAD_CAT_ID":56748,"ELEMENT_SET_NO":999,"REV_AT_EPOCH":15460,"BSTAR":0.00043416252,"MEAN_MOTION_DOT":0.00012341,"MEAN_MOTION_DDOT":0},{"OBJECT_NAME":"STARLINK-35099","OBJECT_ID":"2025-216B","EPOCH":"2026-03-09T22:15:29.545920","MEAN_MOTION":15.30214046,"ECCENTRICITY":0.00013853,"INCLINATION":53.1618,"RA_OF_ASC_NODE":331.5277,"ARG_OF_PERICENTER":134.6272,"MEAN_ANOMALY":225.4842,"EPHEMERIS_TYPE":0,"CLASSIFICATION_TYPE":"U","NORAD_CAT_ID":65735,"ELEMENT_SET_NO":999,"REV_AT_EPOCH":2655,"BSTAR":0.00098140469,"MEAN_MOTION_DOT":0.00028833,"MEAN_MOTION_DDOT":0}]
